              TDR Cartesian                         TDR Cartesian  
    -----------------------------------       --------------------------------
     X    =      -17350879.19                 X    =        -5288547.98
     Y    =       13541449.75  feet           Y    =         4127433.88  meter
     Z    =       -3340258.04                 Z    =        -1018110.65
     XDOT =      -6420.282078                 XDOT =       -1956.901977
     YDOT =     -12970.423483  feet/sec       YDOT =       -3953.385078  meter/sec
     ZDOT =     -19367.489007                 ZDOT =       -5903.210649
  
  
    The mean element set is posted at the UTC for which position is
    just north of the next ascending node relative to the above
    vector time
 
 
    TWO LINE MEAN ELEMENT SET
  
    ISS
    1 25544U 98067A   16108.58367218  .00016717  00000-0  10270-3 0  9047
    2 25544  51.6447    .3198 0001544  37.5604 322.5656 15.54198263 35550
  
  
    Satellite: ISS
    Catalog Number: 25544
    Epoch time:      16108.58367218   =   yrday.fracday
    Element set:     904
    Inclination:       51.6447  deg
    RA of node:          .3198  deg
    Eccentricity:     .0001544     
    Arg of perigee:    37.5604  deg
    Mean anomaly:     322.5656  deg
    Mean motion:   15.54198263  rev/day
    Decay rate:    1.67170E-04  rev/day^2
    Epoch rev:            3555
    Checksum:              311
 
 
    Coasting Arc #6 (Orbit 3570)
    ---------------------------------------
 
    Vector Time (GMT): 2016/109/13:16:58.235
    Vector Time (MET): N/A
    Weight (LBS)     : 945238.6
 
              M50 Cartesian                         M50 Keplerian  
    -----------------------------------       --------------------------------
     X    =        6067830.63                 A    =         6786038.05  meter
     Y    =        1533437.79  meter          E    =           .0014912
     Z    =        2603851.20                 I    =           51.62609
     XDOT =      -3385.999845                 Wp   =           72.47009
     YDOT =       4465.245582  meter/sec      RA   =          354.94757  deg
     ZDOT =       5240.518987                 TA   =          316.86858
                                              MA   =          316.98531
                                              Ha   =            221.181  n.mi
                                              Hp   =            214.073
 
              M50 Cartesian                         J2K Cartesian  
    -----------------------------------       --------------------------------
     X    =       19907580.80                 X    =         6037583.89
     Y    =        5030963.87  feet           Y    =         1601123.45  meter
     Z    =        8542818.90                 Z    =         2633253.80
     XDOT =     -11108.923377                 XDOT =       -3461.136051
     YDOT =      14649.755846  feet/sec       YDOT =        4426.961491  meter/sec
     ZDOT =      17193.303764                 ZDOT =        5223.887586
 
              TDR Cartesian                         TDR Cartesian  
    -----------------------------------       --------------------------------
     X    =       17507285.98                 X    =         5336220.77
     Y    =      -10626565.85  feet           Y    =        -3238977.27  meter
     Z    =        8670245.76                 Z    =         2642690.91
     XDOT =       1804.928018                 XDOT =         550.142060
     YDOT =      16995.665921  feet/sec       YDOT =        5180.278973  meter/sec
     ZDOT =      17120.166972                 ZDOT =        5218.226893
  
  
    The mean element set is posted at the UTC for which position is
    just north of the next ascending node relative to the above
    vector time
 
 
    TWO LINE MEAN ELEMENT SET
  
    ISS
    1 25544U 98067A   16109.61243067  .00016717  00000-0  10270-3 0  9058
    2 25544  51.6442 355.1897 0001752  35.0099 325.1169 15.54242640 35719
  
  
    Satellite: ISS
    Catalog Number: 25544
    Epoch time:      16109.61243067   =   yrday.fracday
    Element set:     905
    Inclination:       51.6442  deg
    RA of node:       355.1897  deg
    Eccentricity:     .0001752     
    Arg of perigee:    35.0099  deg
    Mean anomaly:     325.1169  deg
    Mean motion:   15.54242640  rev/day
    Decay rate:    1.67170E-04  rev/day^2
    Epoch rev:            3571
    Checksum:              301
 
 
    Coasting Arc #7 (Orbit 3585)
    ---------------------------------------
 
    Vector Time (GMT): 2016/110/13:16:58.235
    Vector Time (MET): N/A
    Weight (LBS)     : 945238.6
 
              M50 Cartesian                         M50 Keplerian  
    -----------------------------------       --------------------------------
     X    =       -4978192.77                 A    =         6782152.57  meter
     Y    =       -2327664.65  meter          E    =           .0008357
     Z    =       -3983820.31                 I    =           51.58051
     XDOT =       5099.622135                 Wp   =           65.22485
     YDOT =      -4105.819713  meter/sec      RA   =          349.96193  deg
     ZDOT =      -3976.693893                 TA   =          163.29000
                                              MA   =          163.26245
                                              Ha   =            221.199  n.mi
                                              Hp   =            214.012
 
              M50 Cartesian                         J2K Cartesian  
    -----------------------------------       --------------------------------
     X    =      -16332653.44                 X    =        -4932442.36
     Y    =       -7636695.04  feet           Y    =        -2383078.70  meter
     Z    =      -13070276.60                 Z    =        -4007892.02
     XDOT =      16731.043749                 XDOT =        5164.472693
     YDOT =     -13470.537117  feet/sec       YDOT =       -4048.430135  meter/sec
     ZDOT =     -13046.895975                 ZDOT =       -3951.763024
 
              TDR Cartesian                         TDR Cartesian  
    -----------------------------------       --------------------------------
     X    =      -16728838.26                 X    =        -5098949.90
     Y    =        6518321.85  feet           Y    =         1986784.50  meter
     Z    =      -13174378.96                 Z    =        -4015550.71
     XDOT =       2290.760200                 XDOT =         698.223709
     YDOT =     -20249.221742  feet/sec       YDOT =       -6171.962787  meter/sec
     ZDOT =     -12937.785199                 ZDOT =       -3943.436929
  
  
    The mean element set is posted at the UTC for which position is
    just north of the next ascending node relative to the above
    vector time
 
 
    TWO LINE MEAN ELEMENT SET
  
    ISS
    1 25544U 98067A   16110.57688397  .00016717  00000-0  10270-3 0  9065
    2 25544  51.6434 350.3809 0001618  36.4108 323.7155 15.54248538 35864
  
  
    Satellite: ISS
    Catalog Number: 25544
    Epoch time:      16110.57688397   =   yrday.fracday
    Element set:     906
    Inclination:       51.6434  deg
    RA of node:       350.3809  deg
    Eccentricity:     .0001618     
    Arg of perigee:    36.4108  deg
    Mean anomaly:     323.7155  deg
    Mean motion:   15.54248538  rev/day
    Decay rate:    1.67170E-04  rev/day^2
    Epoch rev:            3586
    Checksum:              323
 
 
    Coasting Arc #8 (Orbit 3601)
    ---------------------------------------
 
    Vector Time (GMT): 2016/111/13:16:58.235
    Vector Time (MET): N/A
    Weight (LBS)     : 945238.6
 
              M50 Cartesian                         M50 Keplerian  
    -----------------------------------       --------------------------------
     X    =        3513395.42                 A    =         6778695.59  meter
     Y    =        3087675.16  meter          E    =           .0007074
     Z    =        4901325.04                 I    =           51.53731
     XDOT =      -6374.076959                 Wp   =          107.18272
     YDOT =       3600.835937  meter/sec      RA   =          344.96281  deg
     ZDOT =       2295.905144                 TA   =          320.32349
                                              MA   =          320.37522
                                              Ha   =            221.209  n.mi
                                              Hp   =            214.032
 
              M50 Cartesian                         J2K Cartesian  
    -----------------------------------       --------------------------------
     X    =       11526887.87                 X    =         3454798.28
     Y    =       10130167.86  feet           Y    =         3126637.10  meter
     Z    =       16080462.72                 Z    =         4918249.86
     XDOT =     -20912.325982                 XDOT =       -6425.021344
     YDOT =      11813.766196  feet/sec       YDOT =        3529.272128  meter/sec
     ZDOT =       7532.497190                 ZDOT =        2264.816974
 
              TDR Cartesian                         TDR Cartesian  
    -----------------------------------       --------------------------------
     X    =       15188576.06                 X    =         4629477.98
     Y    =       -1564203.79  feet           Y    =         -476769.32  meter
     Z    =       16153363.43                 Z    =         4923545.17
     XDOT =      -5584.274301                 XDOT =       -1702.086807
     YDOT =      22323.048886  feet/sec       YDOT =        6804.065301  meter/sec
     ZDOT =       7396.751237                 ZDOT =        2254.529777
  
  
    The mean element set is posted at the UTC for which position is
    just north of the next ascending node relative to the above
    vector time
 
 
    TWO LINE MEAN ELEMENT SET
  
    ISS
    1 25544U 98067A   16111.60562745  .00016717  00000-0  10270-3 0  9079
    2 25544  51.6432 345.2509 0001778  42.4221 317.7069 15.54243152 36025
  
